[{"OBJECT_NAME":"HORS 2","OBJECT_ID":"2023-091AG","EPOCH":"2026-03-09T22:11:34.810944","MEAN_MOTION":15.2928008,"ECCENTRICITY":0.00098173,"INCLINATION":97.5195,"RA_OF_ASC_NODE":134.7443,"ARG_OF_PERICENTER":79.3164,"MEAN_ANOMALY":280.9181,"EPHEMERIS_TYPE":0,"CLASSIFICATION_TYPE":"U","NORAD_CAT_ID":57196,"ELEMENT_SET_NO":999,"REV_AT_EPOCH":14934,"BSTAR":0.00059338338,"MEAN_MOTION_DOT":0.00016821,"MEAN_MOTION_DDOT":0},{"OBJECT_NAME":"STARLINK-31689","OBJECT_ID":"2024-076D","EPOCH":"2026-03-09T04:24:01.682784","MEAN_MOTION":15.275769,"ECCENTRICITY":6.023e-5,"INCLINATION":42.9995,"RA_OF_ASC_NODE":8.5445,"ARG_OF_PERICENTER":278.6438,"MEAN_ANOMALY":81.4346,"EPHEMERIS_TYPE":0,"CLASSIFICATION_TYPE":"U","NORAD_CAT_ID":59567,"ELEMENT_SET_NO":999,"REV_AT_EPOCH":10646,"BSTAR":-6.5234855e-5,"MEAN_MOTION_DOT":-2.056e-5,"MEAN_MOTION_DDOT":0}]
